{"type": "FeatureCollection", "features": [ {"type": "Feature", "properties": {"norad_id": 33779, "name": "COSMOS 2251 DEB", "group": "cosmos-2251-debris", "lat": 73.37877542667673, "lon": -94.47300737686196, "alt_km": 653.1430732094414, "timestamp": "2025-12-18T19:29:52.934772+00:00", "meta": {"OBJECT_NAME": "COSMOS 2251 DEB", "OBJECT_ID": "1993-036U", "EPOCH": "2025-12-17T22:24:17.346240", "MEAN_MOTION": 14.70573086, "ECCENTRICITY": 0.00166188, "INCLINATION": 74.0441, "RA_OF_ASC_NODE": 160.6501, "ARG_OF_PERICENTER": 193.3041, "MEAN_ANOMALY": 290.5943, "EPHEMERIS_TYPE": 0, "CLASSIFICATION_TYPE": "U", "NORAD_CAT_ID": 33779, "ELEMENT_SET_NO": 999, "REV_AT_EPOCH": 88604, "BSTAR": 0.0017088742, "MEAN_MOTION_DOT": 0.0001039, "MEAN_MOTION_DDOT": 0}, "tle": {"line1": "1 33779U 93036U   25351.93353410  .00010390  00000+0  17089-2 0  9993", "line2": "2 33779  74.0441 160.6501 0016618 193.3041 290.5943 14.70573086886042"}}, "geometry": {"type": "Point", "coordinates": [-94.47300737686196, 73.37877542667673]}}, {"type": "Feature", "properties": {"norad_id": 33782, "name": "COSMOS 2251 DEB", "group": "cosmos-2251-debris", "lat": -71.87397972464775, "lon": -154.6826533066715, "alt_km": 754.5926708735951, "timestamp": "2025-12-18T19:29:52.934783+00:00", "meta": {"OBJECT_NAME": "COSMOS 2251 DEB", "OBJECT_ID": "1993-036X", "EPOCH": "2025-12-18T05:34:48.433728", "MEAN_MOTION": 14.40462077, "ECCENTRICITY": 0.00209359, "INCLINATION": 74.0331, "RA_OF_ASC_NODE": 267.3882, "ARG_OF_PERICENTER": 331.3967, "MEAN_ANOMALY": 181.4634, "EPHEMERIS_TYPE": 0, "CLASSIFICATION_TYPE": "U", "NORAD_CAT_ID": 33782, "ELEMENT_SET_NO": 999, "REV_AT_EPOCH": 88205, "BSTAR": 0.00032086242, "MEAN_MOTION_DOT": 9.96e-06, "MEAN_MOTION_DDOT": 0}, "tle": {"line1": "1 33782U 93036X   25352.23250502  .00000996  00000+0  32086-3 0  9995", "line2": "2 33782  74.0331 267.3882 0020935 331.3967 181.4634 14.40462077882055"}}, "geometry": {"type": "Point", "coordinates": [-154.6826533066715, -71.87397972464775]}}, {"type": "Feature", "properties": {"norad_id": 33785, "name": "COSMOS 2251 DEB", "group": "cosmos-2251-debris", "lat": 63.87522415699601, "lon": 84.1920329482076, "alt_km": 650.4972409660531, "timestamp": "2025-12-18T19:29:52.934794+00:00", "meta": {"OBJECT_NAME": "COSMOS 2251 DEB", "OBJECT_ID": "1993-036AA", "EPOCH": "2025-12-18T06:24:57.432096", "MEAN_MOTION": 14.7060956, "ECCENTRICITY": 0.00228005, "INCLINATION": 73.8675, "RA_OF_ASC_NODE": 49.0905, "ARG_OF_PERICENTER": 347.4315, "MEAN_ANOMALY": 76.9021, "EPHEMERIS_TYPE": 0, "CLASSIFICATION_TYPE": "U", "NORAD_CAT_ID": 33785, "ELEMENT_SET_NO": 999, "REV_AT_EPOCH": 88588, "BSTAR": 0.0015721766, "MEAN_MOTION_DOT": 9.579e-05, "MEAN_MOTION_DDOT": 0}, "tle": {"line1": "1 33785U 93036AA  25352.26733139  .00009579  00000+0  15722-2 0  9996", "line2": "2 33785  73.8675  49.0905 0022800 347.4315  76.9021 14.70609560885880"}}, "geometry": {"type": "Point", "coordinates": [84.1920329482076, 63.87522415699601]}}, {"type": "Feature", "properties": {"norad_id": 33789, "name": "COSMOS 2251 DEB", "group": "cosmos-2251-debris", "lat": -72.84755975515134, "lon": -35.128521179741156, "alt_km": 882.3194981505867, "timestamp": "2025-12-18T19:29:52.934804+00:00", "meta": {"OBJECT_NAME": "COSMOS 2251 DEB", "OBJECT_ID": "1993-036AE", "EPOCH": "2025-12-18T06:26:23.392320", "MEAN_MOTION": 13.88808166, "ECCENTRICITY": 0.02399569, "INCLINATION": 74.0645, "RA_OF_ASC_NODE": 78.0233, "ARG_OF_PERICENTER": 192.4377, "MEAN_ANOMALY": 229.2869, "EPHEMERIS_TYPE": 0, "CLASSIFICATION_TYPE": "U", "NORAD_CAT_ID": 33789, "ELEMENT_SET_NO": 999, "REV_AT_EPOCH": 85172, "BSTAR": 0.000570237, "MEAN_MOTION_DOT": 8.44e-06, "MEAN_MOTION_DDOT": 0}, "tle": {"line1": "1 33789U 93036AE  25352.26832630  .00000844  00000+0  57024-3 0  9994", "line2": "2 33789  74.0645  78.0233 0239956 192.4377 229.2869 13.88808166851728"}}, "geometry": {"type": "Point", "coordinates": [-35.128521179741156, -72.84755975515134]}}, {"type": "Feature", "properties": {"norad_id": 33791, "name": "COSMOS 2251 DEB", "group": "cosmos-2251-debris", "lat": -57.81796888308864, "lon": -126.81221413244442, "alt_km": 734.4005799860652, "timestamp": "2025-12-18T19:29:52.934814+00:00", "meta": {"OBJECT_NAME": "COSMOS 2251 DEB", "OBJECT_ID": "1993-036AG", "EPOCH": "2025-12-18T05:23:24.745344", "MEAN_MOTION": 14.43152299, "ECCENTRICITY": 0.00303372, "INCLINATION": 74.1751, "RA_OF_ASC_NODE": 27.481, "ARG_OF_PERICENTER": 223.7495, "MEAN_ANOMALY": 204.9729, "EPHEMERIS_TYPE": 0, "CLASSIFICATION_TYPE": "U", "NORAD_CAT_ID": 33791, "ELEMENT_SET_NO": 999, "REV_AT_EPOCH": 88131, "BSTAR": 0.00065905767, "MEAN_MOTION_DOT": 2.201e-05, "MEAN_MOTION_DDOT": 0}, "tle": {"line1": "1 33791U 93036AG  25352.22459196  .00002201  00000+0  65906-3 0  9992", "line2": "2 33791  74.1751  27.4810 0030337 223.7495 204.9729 14.43152299881314"}}, "geometry": {"type": "Point", "coordinates": [-126.81221413244442, -57.81796888308864]}}, {"type": "Feature", "properties": {"norad_id": 33792, "name": "COSMOS 2251 DEB", "group": "cosmos-2251-debris", "lat": -38.14906266583958, "lon": -37.464291921357116, "alt_km": 1020.2461285811769, "timestamp": "2025-12-18T19:29:52.934824+00:00", "meta": {"OBJECT_NAME": "COSMOS 2251 DEB", "OBJECT_ID": "1993-036AH", "EPOCH": "2025-12-18T07:29:41.153568", "MEAN_MOTION": 13.45832375, "ECCENTRICITY": 0.04273884, "INCLINATION": 73.901, "RA_OF_ASC_NODE": 336.4451, "ARG_OF_PERICENTER": 40.0683, "MEAN_ANOMALY": 22.5164, "EPHEMERIS_TYPE": 0, "CLASSIFICATION_TYPE": "U", "NORAD_CAT_ID": 33792, "ELEMENT_SET_NO": 999, "REV_AT_EPOCH": 82517, "BSTAR": 0.00084045024, "MEAN_MOTION_DOT": 8.51e-06, "MEAN_MOTION_DDOT": 0}, "tle": {"line1": "1 33792U 93036AH  25352.31228187  .00000851  00000+0  84045-3 0  9991", "line2": "2 33792  73.9010 336.4451 0427388  40.0683  22.5164 13.45832375825179"}}, "geometry": {"type": "Point", "coordinates": [-37.464291921357116, -38.14906266583958]}}, {"type": "Feature", "properties": {"norad_id": 33793, "name": "COSMOS 2251 DEB", "group": "cosmos-2251-debris", "lat": 30.125634807843355, "lon": -50.715662727666285, "alt_km": 840.0032229665212, "timestamp": "2025-12-18T19:29:52.934835+00:00", "meta": {"OBJECT_NAME": "COSMOS 2251 DEB", "OBJECT_ID": "1993-036AJ", "EPOCH": "2025-12-17T19:48:39.198816", "MEAN_MOTION": 14.27739747, "ECCENTRICITY": 0.00786734, "INCLINATION": 73.9806, "RA_OF_ASC_NODE": 140.6742, "ARG_OF_PERICENTER": 289.7736, "MEAN_ANOMALY": 188.3925, "EPHEMERIS_TYPE": 0, "CLASSIFICATION_TYPE": "U", "NORAD_CAT_ID": 33793, "ELEMENT_SET_NO": 999, "REV_AT_EPOCH": 87279, "BSTAR": 0.00058964952, "MEAN_MOTION_DOT": 1.478e-05, "MEAN_MOTION_DDOT": 0}, "tle": {"line1": "1 33793U 93036AJ  25351.82545369  .00001478  00000+0  58965-3 0  9999", "line2": "2 33793  73.9806 140.6742 0078673 289.7736 188.3925 14.27739747872797"}}, "geometry": {"type": "Point", "coordinates": [-50.715662727666285, 30.125634807843355]}}, {"type": "Feature", "properties": {"norad_id": 33795, "name": "COSMOS 2251 DEB", "group": "cosmos-2251-debris", "lat": -3.6652440317704937, "lon": 63.23344618917977, "alt_km": 570.7717352756517, "timestamp": "2025-12-18T19:29:52.934845+00:00", "meta": {"OBJECT_NAME": "COSMOS 2251 DEB", "OBJECT_ID": "1993-036AL", "EPOCH": "2025-12-18T07:01:35.048928", "MEAN_MOTION": 15.05703304, "ECCENTRICITY": 0.00308076, "INCLINATION": 74.0323, "RA_OF_ASC_NODE": 65.3497, "ARG_OF_PERICENTER": 146.7057, "MEAN_ANOMALY": 274.1862, "EPHEMERIS_TYPE": 0, "CLASSIFICATION_TYPE": "U", "NORAD_CAT_ID": 33795, "ELEMENT_SET_NO": 999, "REV_AT_EPOCH": 90105, "BSTAR": 0.0010562944, "MEAN_MOTION_DOT": 0.00015432, "MEAN_MOTION_DDOT": 0}, "tle": {"line1": "1 33795U 93036AL  25352.29276677  .00015432  00000+0  10563-2 0  9992", "line2": "2 33795  74.0323  65.3497 0030807 146.7057 274.1862 15.05703304901053"}}, "geometry": {"type": "Point", "coordinates": [63.23344618917977, -3.6652440317704937]}}, {"type": "Feature", "properties": {"norad_id": 33797, "name": "COSMOS 2251 DEB", "group": "cosmos-2251-debris", "lat": -32.09235496230475, "lon": -146.24756999444665, "alt_km": 715.8700656119172, "timestamp": "2025-12-18T19:29:52.934855+00:00", "meta": {"OBJECT_NAME": "COSMOS 2251 DEB", "OBJECT_ID": "1993-036AN", "EPOCH": "2025-12-18T05:42:21.843648", "MEAN_MOTION": 14.57867151, "ECCENTRICITY": 0.00604971, "INCLINATION": 74.0467, "RA_OF_ASC_NODE": 24.5101, "ARG_OF_PERICENTER": 110.7464, "MEAN_ANOMALY": 327.2309, "EPHEMERIS_TYPE": 0, "CLASSIFICATION_TYPE": "U", "NORAD_CAT_ID": 33797, "ELEMENT_SET_NO": 999, "REV_AT_EPOCH": 89065, "BSTAR": 0.00030293881, "MEAN_MOTION_DOT": 1.393e-05, "MEAN_MOTION_DDOT": 0}, "tle": {"line1": "1 33797U 93036AN  25352.23775282  .00001393  00000+0  30294-3 0  9999", "line2": "2 33797  74.0467  24.5101 0060497 110.7464 327.2309 14.57867151890650"}}, "geometry": {"type": "Point", "coordinates": [-146.24756999444665, -32.09235496230475]}}, {"type": "Feature", "properties": {"norad_id": 33798, "name": "COSMOS 2251 DEB", "group": "cosmos-2251-debris", "lat": 17.325907350736802, "lon": -60.531358470160434, "alt_km": 734.5264784572819, "timestamp": "2025-12-18T19:29:52.934865+00:00", "meta": {"OBJECT_NAME": "COSMOS 2251 DEB", "OBJECT_ID": "1993-036AP", "EPOCH": "2025-12-18T02:56:56.513184", "MEAN_MOTION": 14.44621171, "ECCENTRICITY": 0.00924474, "INCLINATION": 74.0288, "RA_OF_ASC_NODE": 125.8783, "ARG_OF_PERICENTER": 246.0905, "MEAN_ANOMALY": 292.2026, "EPHEMERIS_TYPE": 0, "CLASSIFICATION_TYPE": "U", "NORAD_CAT_ID": 33798, "ELEMENT_SET_NO": 999, "REV_AT_EPOCH": 88671, "BSTAR": 0.00014734663, "MEAN_MOTION_DOT": 5.08e-06, "MEAN_MOTION_DDOT": 0}, "tle": {"line1": "1 33798U 93036AP  25352.12287631  .00000508  00000+0  14735-3 0  9993", "line2": "2 33798  74.0288 125.8783 0092447 246.0905 292.2026 14.44621171886711"}}, "geometry": {"type": "Point", "coordinates": [-60.531358470160434, 17.325907350736802]}}]}